{
  "type": "FeatureCollection",
  "features": [
    {
      "type": "Feature",
      "properties": {
        "norad_id": 59600,
        "name": "GSAT0227 (GALILEO 30)",
        "group": "galileo",
        "lat": 54.79250714591392,
        "lon": -156.55013441685185,
        "alt_km": 23207.19908108704,
        "timestamp": "2025-12-17T21:39:45.951262+00:00",
        "meta_object_name": "GSAT0227 (GALILEO 30)",
        "meta_object_id": "2024-079C",
        "meta_epoch": "2025-12-15T23:44:48.318432",
        "meta_mean_motion": 1.70474874,
        "meta_eccentricity": 0.00030998,
        "meta_inclination": 54.9987,
        "meta_ra_of_asc_node": 106.2033,
        "meta_arg_of_pericenter": 115.4904,
        "meta_mean_anomaly": 244.5024,
        "meta_ephemeris_type": 0,
        "meta_classification_type": "U",
        "meta_norad_cat_id": 59600,
        "meta_element_set_no": 999,
        "meta_rev_at_epoch": 1024,
        "meta_bstar": 0,
        "meta_mean_motion_dot": -9e-08,
        "meta_mean_motion_ddot": 0,
        "tle_line1": "1 59600U 24079C   25349.98944813 -.00000009  00000+0  00000+0 0  9999",
        "tle_line2": "2 59600  54.9987 106.2033 0003099 115.4904 244.5024  1.70474874 10244"
      },
      "geometry": {
        "type": "Point",
        "coordinates": [
          -156.55013441685185,
          54.79250714591392
        ]
      }
    },
    {
      "type": "Feature",
      "properties": {
        "norad_id": 61182,
        "name": "GSAT0232 (GALILEO 32)",
        "group": "galileo",
        "lat": -51.13926762466127,
        "lon": 166.8554174830935,
        "alt_km": 23226.734430376473,
        "timestamp": "2025-12-17T21:39:45.951279+00:00",
        "meta_object_name": "GSAT0232 (GALILEO 32)",
        "meta_object_id": "2024-167A",
        "meta_epoch": "2025-12-15T09:09:10.050912",
        "meta_mean_motion": 1.70473627,
        "meta_eccentricity": 0.00018812,
        "meta_inclination": 55.2399,
        "meta_ra_of_asc_node": 226.3583,
        "meta_arg_of_pericenter": 210.2547,
        "meta_mean_anomaly": 331.0661,
        "meta_ephemeris_type": 0,
        "meta_classification_type": "U",
        "meta_norad_cat_id": 61182,
        "meta_element_set_no": 999,
        "meta_rev_at_epoch": 774,
        "meta_bstar": 0,
        "meta_mean_motion_dot": 4.1e-07,
        "meta_mean_motion_ddot": 0,
        "tle_line1": "1 61182U 24167A   25349.38136633  .00000041  00000+0  00000+0 0  9997",
        "tle_line2": "2 61182  55.2399 226.3583 0001881 210.2547 331.0661  1.70473627  7746"
      },
      "geometry": {
        "type": "Point",
        "coordinates": [
          166.8554174830935,
          -51.13926762466127
        ]
      }
    },
    {
      "type": "Feature",
      "properties": {
        "norad_id": 61183,
        "name": "GSAT0226 (GALILEO 31)",
        "group": "galileo",
        "lat": 32.77565684136545,
        "lon": -107.15721145962932,
        "alt_km": 23217.458824225243,
        "timestamp": "2025-12-17T21:39:45.951289+00:00",
        "meta_object_name": "GSAT0226 (GALILEO 31)",
        "meta_object_id": "2024-167B",
        "meta_epoch": "2025-12-12T20:26:08.685024",
        "meta_mean_motion": 1.70473602,
        "meta_eccentricity": 8.42e-05,
        "meta_inclination": 55.2391,
        "meta_ra_of_asc_node": 226.433,
        "meta_arg_of_pericenter": 113.0334,
        "meta_mean_anomaly": 68.3038,
        "meta_ephemeris_type": 0,
        "meta_classification_type": "U",
        "meta_norad_cat_id": 61183,
        "meta_element_set_no": 999,
        "meta_rev_at_epoch": 767,
        "meta_bstar": 0,
        "meta_mean_motion_dot": 1.9e-07,
        "meta_mean_motion_ddot": 0,
        "tle_line1": "1 61183U 24167B   25346.85148941  .00000019  00000+0  00000+0 0  9997",
        "tle_line2": "2 61183  55.2391 226.4330 0000842 113.0334  68.3038  1.70473602  7673"
      },
      "geometry": {
        "type": "Point",
        "coordinates": [
          -107.15721145962932,
          32.77565684136545
        ]
      }
    },
    {
      "type": "Feature",
      "properties": {
        "norad_id": 67160,
        "name": "GALILEO A",
        "group": "galileo",
        "lat": -22.689216891568428,
        "lon": -55.238730917660256,
        "alt_km": 22929.734146942777,
        "timestamp": "2025-12-17T21:39:45.951300+00:00",
        "meta_object_name": "GALILEO A",
        "meta_object_id": "2025-302A",
        "meta_epoch": "2025-12-17T13:37:30.970848",
        "meta_mean_motion": 1.72894122,
        "meta_eccentricity": 0.0007404,
        "meta_inclination": 54.2333,
        "meta_ra_of_asc_node": 107.264,
        "meta_arg_of_pericenter": 239.3858,
        "meta_mean_anomaly": 120.5001,
        "meta_ephemeris_type": 0,
        "meta_classification_type": "U",
        "meta_norad_cat_id": 67160,
        "meta_element_set_no": 999,
        "meta_rev_at_epoch": 1,
        "meta_bstar": 0,
        "meta_mean_motion_dot": -8e-08,
        "meta_mean_motion_ddot": 0,
        "tle_line1": "1 67160U 25302A   25351.56771957 -.00000008  00000+0  00000+0 0  9992",
        "tle_line2": "2 67160  54.2333 107.2640 0007404 239.3858 120.5001  1.72894122    11"
      },
      "geometry": {
        "type": "Point",
        "coordinates": [
          -55.238730917660256,
          -22.689216891568428
        ]
      }
    },
    {
      "type": "Feature",
      "properties": {
        "norad_id": 67161,
        "name": "GALILEO B",
        "group": "galileo",
        "lat": -22.815874749161644,
        "lon": -55.142874858113565,
        "alt_km": 22927.18725018854,
        "timestamp": "2025-12-17T21:39:45.951310+00:00",
        "meta_object_name": "GALILEO B",
        "meta_object_id": "2025-302B",
        "meta_epoch": "2025-12-17T13:37:26.133312",
        "meta_mean_motion": 1.7297556,
        "meta_eccentricity": 0.0005026,
        "meta_inclination": 54.2323,
        "meta_ra_of_asc_node": 107.2467,
        "meta_arg_of_pericenter": 244.253,
        "meta_mean_anomaly": 115.654,
        "meta_ephemeris_type": 0,
        "meta_classification_type": "U",
        "meta_norad_cat_id": 67161,
        "meta_element_set_no": 999,
        "meta_rev_at_epoch": 2,
        "meta_bstar": 0,
        "meta_mean_motion_dot": -8e-08,
        "meta_mean_motion_ddot": 0,
        "tle_line1": "1 67161U 25302B   25351.56766358 -.00000008  00000+0  00000+0 0  9992",
        "tle_line2": "2 67161  54.2323 107.2467 0005026 244.2530 115.6540  1.72975560    28"
      },
      "geometry": {
        "type": "Point",
        "coordinates": [
          -55.142874858113565,
          -22.815874749161644
        ]
      }
    }
  ]
}